FORMOSAT 7-5            
1 44358U 19036V   26068.77147620  .00003857  00000+0  30916-3 0  9993
2 44358  23.9972 218.3817 0000871  89.5193 270.5408 14.96027232367445
STARLINK-5069           
1 55640U 23021N   26068.69807820 -.00000186  00000+0 -78334-5 0  9996
2 55640  70.0013 184.3951 0003255 267.8989  92.1798 14.98330184168796
